IRIDIUM 136             
1 42962U 17061H   24134.86964060  .00000725  00000+0  25167-3 0  9998
2 42962  86.3977 344.6715 0002452  80.8449 279.3024 14.34219381345286
